ONEWEB-0340             
1 49206U 21083W   26133.00269634  .00000097  00000+0  21246-3 0  9993
2 49206  87.9183 342.4559 0001834  90.8516 269.2827 13.18683430225334
ONEWEB-0341             
1 49207U 21083X   26133.00944011  .00000880  00000+0  21998-2 0  9996
2 49207  87.9173 342.4601 0001376  90.2490 269.8800 13.18680906225352
ONEWEB-0342             
1 49208U 21083Y   26133.12396924  .00000044  00000+0  75108-4 0  9990
2 49208  87.9160 281.4302 0001788  95.1675 264.9662 13.20771781232158
ONEWEB-0343             
1 49209U 21083Z   26133.01786444  .00000034  00000+0  53875-4 0  9995
2 49209  87.9176 342.4562 0001563  75.1384 284.9921 13.18683845225408
ONEWEB-0344             
1 49210U 21083AA  26133.00197938  .00000148  00000+0  36899-3 0  9992
2 49210  87.8933 327.2551 0001468  97.9698 262.1598 13.13470938226279
ONEWEB-0345             
1 49211U 21083AB  26133.06968118  .00000474  00000+0  12628-2 0  9990
2 49211  87.8950 327.2168 0001532  95.5075 264.6229 13.13468183226297
ONEWEB-0346             
1 49212U 21083AC  26133.01449411 -.00000144  00000+0 -39715-3 0  9999
2 49212  87.9164 342.4592 0002117  99.0332 261.1040 13.18685636225348
ONEWEB-0348             
1 49213U 21083AD  26133.11409145  .00000079  00000+0  16153-3 0  9997
2 49213  87.9161 281.4357 0002038 112.7597 247.3752 13.20855334232188
ONEWEB-0350             
1 49214U 21083AE  26133.00281462  .00000277  00000+0  72278-3 0  9996
2 49214  87.8952 327.2314 0001579  99.4050 260.7258 13.13470192226317
ONEWEB-0351             
1 49215U 21083AF  26132.95586449 -.00000030  00000+0 -10457-3 0  9993
2 49215  87.9161 281.4659 0001093  82.7027 277.4231 13.20910961232127
ONEWEB-0352             
1 49216U 21083AG  26133.05952478  .00000351  00000+0  92639-3 0  9991
2 49216  87.8943 327.2319 0001514  78.7751 281.3548 13.13469094226412
ONEWEB-0354             
1 49217U 21083AH  26133.13385364 -.00000007  00000+0 -48466-4 0  9995
2 49217  87.9160 281.4293 0001880 110.4262 249.7073 13.20687541232183
ONEWEB-0355             
1 49218U 21083AJ  26133.01226884 -.00000020  00000+0 -89167-4 0  9992
2 49218  87.8931 327.2456 0001528  88.3050 271.8254 13.13470536226283
ONEWEB-0357             
1 49219U 21083AK  26133.13055657  .00000007  00000+0 -14528-4 0  9997
2 49219  87.9160 281.4243 0001693  94.9219 265.2108 13.20714749232183
ONEWEB-0332             
1 49279U 21090A   26133.20445956  .00000108  00000+0  25632-3 0  9992
2 49279  87.8928 296.6884 0001857  88.1944 271.9399 13.14502732222984
ONEWEB-0347             
1 49280U 21090B   26133.12068116  .00000051  00000+0  94031-4 0  9991
2 49280  87.9158 281.4349 0002060  92.1161 268.0208 13.20799309226416
