[{"OBJECT_NAME":"ONEWEB-0340","OBJECT_ID":"2021-083W","EPOCH":"2026-05-13T00:03:52.963776","MEAN_MOTION":13.1868343,"ECCENTRICITY":0.0001834,"INCLINATION":87.9183,"RA_OF_ASC_NODE":342.4559,"ARG_OF_PERICENTER":90.8516,"MEAN_ANOMALY":269.2827,"EPHEMERIS_TYPE":0,"CLASSIFICATION_TYPE":"U","NORAD_CAT_ID":49206,"ELEMENT_SET_NO":999,"REV_AT_EPOCH":22533,"BSTAR":0.00021246,"MEAN_MOTION_DOT":9.7e-07,"MEAN_MOTION_DDOT":0.0},{"OBJECT_NAME":"ONEWEB-0341","OBJECT_ID":"2021-083X","EPOCH":"2026-05-13T00:13:35.625504","MEAN_MOTION":13.18680906,"ECCENTRICITY":0.0001376,"INCLINATION":87.9173,"RA_OF_ASC_NODE":342.4601,"ARG_OF_PERICENTER":90.249,"MEAN_ANOMALY":269.88,"EPHEMERIS_TYPE":0,"CLASSIFICATION_TYPE":"U","NORAD_CAT_ID":49207,"ELEMENT_SET_NO":999,"REV_AT_EPOCH":22535,"BSTAR":0.0021998,"MEAN_MOTION_DOT":8.8e-06,"MEAN_MOTION_DDOT":0.0},{"OBJECT_NAME":"ONEWEB-0342","OBJECT_ID":"2021-083Y","EPOCH":"2026-05-13T02:58:30.942336","MEAN_MOTION":13.20771781,"ECCENTRICITY":0.0001788,"INCLINATION":87.916,"RA_OF_ASC_NODE":281.4302,"ARG_OF_PERICENTER":95.1675,"MEAN_ANOMALY":264.9662,"EPHEMERIS_TYPE":0,"CLASSIFICATION_TYPE":"U","NORAD_CAT_ID":49208,"ELEMENT_SET_NO":999,"REV_AT_EPOCH":23215,"BSTAR":7.5108e-05,"MEAN_MOTION_DOT":4.4e-07,"MEAN_MOTION_DDOT":0.0},{"OBJECT_NAME":"ONEWEB-0343","OBJECT_ID":"2021-083Z","EPOCH":"2026-05-13T00:25:43.487616","MEAN_MOTION":13.18683845,"ECCENTRICITY":0.0001563,"INCLINATION":87.9176,"RA_OF_ASC_NODE":342.4562,"ARG_OF_PERICENTER":75.1384,"MEAN_ANOMALY":284.9921,"EPHEMERIS_TYPE":0,"CLASSIFICATION_TYPE":"U","NORAD_CAT_ID":49209,"ELEMENT_SET_NO":999,"REV_AT_EPOCH":22540,"BSTAR":5.3874999999999995e-05,"MEAN_MOTION_DOT":3.4e-07,"MEAN_MOTION_DDOT":0.0},{"OBJECT_NAME":"ONEWEB-0344","OBJECT_ID":"2021-083AA","EPOCH":"2026-05-13T00:02:51.018432","MEAN_MOTION":13.13470938,"ECCENTRICITY":0.0001468,"INCLINATION":87.8933,"RA_OF_ASC_NODE":327.2551,"ARG_OF_PERICENTER":97.9698,"MEAN_ANOMALY":262.1598,"EPHEMERIS_TYPE":0,"CLASSIFICATION_TYPE":"U","NORAD_CAT_ID":49210,"ELEMENT_SET_NO":999,"REV_AT_EPOCH":22627,"BSTAR":0.00036899,"MEAN_MOTION_DOT":1.48e-06,"MEAN_MOTION_DDOT":0.0},{"OBJECT_NAME":"ONEWEB-0345","OBJECT_ID":"2021-083AB","EPOCH":"2026-05-13T01:40:20.453952","MEAN_MOTION":13.13468183,"ECCENTRICITY":0.0001532,"INCLINATION":87.895,"RA_OF_ASC_NODE":327.2168,"ARG_OF_PERICENTER":95.5075,"MEAN_ANOMALY":264.6229,"EPHEMERIS_TYPE":0,"CLASSIFICATION_TYPE":"U","NORAD_CAT_ID":49211,"ELEMENT_SET_NO":999,"REV_AT_EPOCH":22629,"BSTAR":0.0012628000000000001,"MEAN_MOTION_DOT":4.74e-06,"MEAN_MOTION_DDOT":0.0},{"OBJECT_NAME":"ONEWEB-0346","OBJECT_ID":"2021-083AC","EPOCH":"2026-05-13T00:20:52.291104","MEAN_MOTION":13.18685636,"ECCENTRICITY":0.0002117,"INCLINATION":87.9164,"RA_OF_ASC_NODE":342.4592,"ARG_OF_PERICENTER":99.0332,"MEAN_ANOMALY":261.104,"EPHEMERIS_TYPE":0,"CLASSIFICATION_TYPE":"U","NORAD_CAT_ID":49212,"ELEMENT_SET_NO":999,"REV_AT_EPOCH":22534,"BSTAR":-0.00039715000000000003,"MEAN_MOTION_DOT":-1.44e-06,"MEAN_MOTION_DDOT":0.0},{"OBJECT_NAME":"ONEWEB-0348","OBJECT_ID":"2021-083AD","EPOCH":"2026-05-13T02:44:17.501280","MEAN_MOTION":13.20855334,"ECCENTRICITY":0.0002038,"INCLINATION":87.9161,"RA_OF_ASC_NODE":281.4357,"ARG_OF_PERICENTER":112.7597,"MEAN_ANOMALY":247.3752,"EPHEMERIS_TYPE":0,"CLASSIFICATION_TYPE":"U","NORAD_CAT_ID":49213,"ELEMENT_SET_NO":999,"REV_AT_EPOCH":23218,"BSTAR":0.00016153,"MEAN_MOTION_DOT":7.9e-07,"MEAN_MOTION_DDOT":0.0},{"OBJECT_NAME":"ONEWEB-0350","OBJECT_ID":"2021-083AE","EPOCH":"2026-05-13T00:04:03.183168","MEAN_MOTION":13.13470192,"ECCENTRICITY":0.0001579,"INCLINATION":87.8952,"RA_OF_ASC_NODE":327.2314,"ARG_OF_PERICENTER":99.405,"MEAN_ANOMALY":260.7258,"EPHEMERIS_TYPE":0,"CLASSIFICATION_TYPE":"U","NORAD_CAT_ID":49214,"ELEMENT_SET_NO":999,"REV_AT_EPOCH":22631,"BSTAR":0.00072278,"MEAN_MOTION_DOT":2.77e-06,"MEAN_MOTION_DDOT":0.0},{"OBJECT_NAME":"ONEWEB-0351","OBJECT_ID":"2021-083AF","EPOCH":"2026-05-12T22:56:26.691936","MEAN_MOTION":13.20910961,"ECCENTRICITY":0.0001093,"INCLINATION":87.9161,"RA_OF_ASC_NODE":281.4659,"ARG_OF_PERICENTER":82.7027,"MEAN_ANOMALY":277.4231,"EPHEMERIS_TYPE":0,"CLASSIFICATION_TYPE":"U","NORAD_CAT_ID":49215,"ELEMENT_SET_NO":999,"REV_AT_EPOCH":23212,"BSTAR":-0.00010457,"MEAN_MOTION_DOT":-3e-07,"MEAN_MOTION_DDOT":0.0},{"OBJECT_NAME":"ONEWEB-0352","OBJECT_ID":"2021-083AG","EPOCH":"2026-05-13T01:25:42.940992","MEAN_MOTION":13.13469094,"ECCENTRICITY":0.0001514,"INCLINATION":87.8943,"RA_OF_ASC_NODE":327.2319,"ARG_OF_PERICENTER":78.7751,"MEAN_ANOMALY":281.3548,"EPHEMERIS_TYPE":0,"CLASSIFICATION_TYPE":"U","NORAD_CAT_ID":49216,"ELEMENT_SET_NO":999,"REV_AT_EPOCH":22641,"BSTAR":0.00092639,"MEAN_MOTION_DOT":3.51e-06,"MEAN_MOTION_DDOT":0.0},{"OBJECT_NAME":"ONEWEB-0354","OBJECT_ID":"2021-083AH","EPOCH":"2026-05-13T03:12:44.954496","MEAN_MOTION":13.20687541,"ECCENTRICITY":0.000188,"INCLINATION":87.916,"RA_OF_ASC_NODE":281.4293,"ARG_OF_PERICENTER":110.4262,"MEAN_ANOMALY":249.7073,"EPHEMERIS_TYPE":0,"CLASSIFICATION_TYPE":"U","NORAD_CAT_ID":49217,"ELEMENT_SET_NO":999,"REV_AT_EPOCH":23218,"BSTAR":-4.8466e-05,"MEAN_MOTION_DOT":-7e-08,"MEAN_MOTION_DDOT":0.0},{"OBJECT_NAME":"ONEWEB-0355","OBJECT_ID":"2021-083AJ","EPOCH":"2026-05-13T00:17:40.027776","MEAN_MOTION":13.13470536,"ECCENTRICITY":0.0001528,"INCLINATION":87.8931,"RA_OF_ASC_NODE":327.2456,"ARG_OF_PERICENTER":88.305,"MEAN_ANOMALY":271.8254,"EPHEMERIS_TYPE":0,"CLASSIFICATION_TYPE":"U","NORAD_CAT_ID":49218,"ELEMENT_SET_NO":999,"REV_AT_EPOCH":22628,"BSTAR":-8.9167e-05,"MEAN_MOTION_DOT":-2e-07,"MEAN_MOTION_DDOT":0.0},{"OBJECT_NAME":"ONEWEB-0357","OBJECT_ID":"2021-083AK","EPOCH":"2026-05-13T03:08:00.087648","MEAN_MOTION":13.20714749,"ECCENTRICITY":0.0001693,"INCLINATION":87.916,"RA_OF_ASC_NODE":281.4243,"ARG_OF_PERICENTER":94.9219,"MEAN_ANOMALY":265.2108,"EPHEMERIS_TYPE":0,"CLASSIFICATION_TYPE":"U","NORAD_CAT_ID":49219,"ELEMENT_SET_NO":999,"REV_AT_EPOCH":23218,"BSTAR":-1.4528e-05,"MEAN_MOTION_DOT":7e-08,"MEAN_MOTION_DDOT":0.0},{"OBJECT_NAME":"ONEWEB-0332","OBJECT_ID":"2021-090A","EPOCH":"2026-05-13T04:54:25.305984","MEAN_MOTION":13.14502732,"ECCENTRICITY":0.0001857,"INCLINATION":87.8928,"RA_OF_ASC_NODE":296.6884,"ARG_OF_PERICENTER":88.1944,"MEAN_ANOMALY":271.9399,"EPHEMERIS_TYPE":0,"CLASSIFICATION_TYPE":"U","NORAD_CAT_ID":49279,"ELEMENT_SET_NO":999,"REV_AT_EPOCH":22298,"BSTAR":0.00025632,"MEAN_MOTION_DOT":1.08e-06,"MEAN_MOTION_DDOT":0.0},{"OBJECT_NAME":"ONEWEB-0347","OBJECT_ID":"2021-090B","EPOCH":"2026-05-13T02:53:46.852224","MEAN_MOTION":13.20799309,"ECCENTRICITY":0.000206,"INCLINATION":87.9158,"RA_OF_ASC_NODE":281.4349,"ARG_OF_PERICENTER":92.1161,"MEAN_ANOMALY":268.0208,"EPHEMERIS_TYPE":0,"CLASSIFICATION_TYPE":"U","NORAD_CAT_ID":49280,"ELEMENT_SET_NO":999,"REV_AT_EPOCH":22641,"BSTAR":9.403100000000001e-05,"MEAN_MOTION_DOT":5.1e-07,"MEAN_MOTION_DDOT":0.0}]